NORAD_CAT_ID,OBJECT_NAME,OBJECT_TYPE,EPOCH,MEAN_MOTION,ECCENTRICITY,INCLINATION,RA_OF_ASC_NODE,ARG_OF_PERICENTER,MEAN_ANOMALY,BSTAR,MEAN_MOTION_DOT,MEAN_MOTION_DDOT,TLE_LINE0,TLE_LINE1,TLE_LINE2,SEMIMAJOR_AXIS,PERIOD,APOGEE,PERIGEE,DECAYED
49178.0,STARLINK-3086,PAYLOAD,2023-06-15 13:21:18,14.983071,0.0003422,69.9991,291.093,270.6078,89.4689,-0.0001451,-1.823e-05,0.0,0 STARLINK-3086,1 49178U 21082BA  23166.55646272 -.00001823  00000-0 -14510-3 0  9997,2 49178  69.9991 291.0930 0003422 270.6078  89.4689 14.98307100 97620,6950.264,96.108,574.507,569.75,0.0
49178.0,STARLINK-3086,PAYLOAD,2023-06-15 18:09:42,14.98316118,0.0002875,70.0001,290.5871,265.4288,94.6543,-0.00011,-1.405e-05,0.0,0 STARLINK-3086,1 49178U 21082BA  23166.75673900 -.00001405  00000-0 -11000-3 0  9994,2 49178  70.0001 290.5871 0002875 265.4288  94.6543 14.98316118 97658,6950.236,96.108,574.099,570.103,0.0
49178.0,STARLINK-3086,PAYLOAD,2023-06-16 02:10:21,14.98329021,0.0003659,69.9984,289.7442,263.5687,96.5055,-5.1312e-05,-7.05e-06,0.0,0 STARLINK-3086,1 49178U 21082BA  23167.09052859 -.00000705  00000-0 -51312-4 0  9999,2 49178  69.9984 289.7442 0003659 263.5687  96.5055 14.98329021 97704,6950.196,96.107,574.604,569.518,0.0
49178.0,STARLINK-3086,PAYLOAD,2023-06-16 11:47:09,14.98331762,0.0003437,70.0006,288.7367,275.8719,84.2048,0.00013707,1.543e-05,0.0,0 STARLINK-3086,1 49178U 21082BA  23167.49108415  .00001543  00000-0  13707-3 0  9997,2 49178  70.0006 288.7367 0003437 275.8719  84.2048 14.98331762 97760,6950.187,96.107,574.441,569.664,0.0
49178.0,STARLINK-3086,PAYLOAD,2023-06-16 14:59:24,14.98335993,0.0003641,69.9998,288.3985,268.8221,91.2521,0.00031404,3.657e-05,0.0,0 STARLINK-3086,1 49178U 21082BA  23167.62459367  .00003657  00000-0  31404-3 0  9999,2 49178  69.9998 288.3985 0003641 268.8221  91.2521 14.98335993 97782,6950.174,96.107,574.57,569.509,0.0
49178.0,STARLINK-3086,PAYLOAD,2023-06-16 18:11:40,14.98338388,0.0003626,70.0,288.0617,269.5304,90.544,0.00033173,3.868e-05,0.0,0 STARLINK-3086,1 49178U 21082BA  23167.75811140  .00003868  00000-0  33173-3 0  9993,2 49178  70.0000 288.0617 0003626 269.5304  90.5440 14.98338388 97807,6950.167,96.106,574.552,569.512,0.0
49178.0,STARLINK-3086,PAYLOAD,2023-06-17 07:00:46,14.98327948,0.0002628,69.9998,286.7174,288.5384,71.5489,0.00030904,3.596e-05,0.0,0 STARLINK-3086,1 49178U 21082BA  23168.29220305  .00003596  00000-0  30904-3 0  9997,2 49178  69.9998 286.7174 0002628 288.5384  71.5489 14.98327948 97883,6950.199,96.107,573.891,570.238,0.0
49178.0,STARLINK-3086,PAYLOAD,2023-06-17 08:36:54,14.98320404,0.0003117,69.9995,286.5468,270.002,90.0782,0.000215,2.473e-05,0.0,0 STARLINK-3086,1 49178U 21082BA  23168.35896869  .00002473  00000-0  21500-3 0  9993,2 49178  69.9995 286.5468 0003117 270.0020  90.0782 14.98320404 97894,6950.223,96.108,574.254,569.921,0.0
49178.0,STARLINK-3086,PAYLOAD,2023-06-17 13:25:19,14.98323414,0.0003299,69.9992,286.0416,269.7195,90.3586,0.00018549,2.121e-05,0.0,0 STARLINK-3086,1 49178U 21082BA  23168.55924849  .00002121  00000-0  18549-3 0  9994,2 49178  69.9992 286.0416 0003299 269.7195  90.3586 14.98323414 97921,6950.213,96.107,574.371,569.785,0.0
49178.0,STARLINK-3086,PAYLOAD,2023-06-17 15:01:27,14.98325421,0.0003017,70.0001,285.8741,269.5297,90.5516,0.00014452,1.632e-05,0.0,0 STARLINK-3086,1 49178U 21082BA  23168.62600882  .00001632  00000-0  14452-3 0  9995,2 49178  70.0001 285.8741 0003017 269.5297  90.5516 14.98325421 97938,6950.207,96.107,574.169,569.975,0.0
49178.0,STARLINK-3086,PAYLOAD,2023-06-18 00:38:15,14.98332635,0.0003113,69.9997,284.8637,269.8025,90.2777,8.8803e-05,9.67e-06,0.0,0 STARLINK-3086,1 49178U 21082BA  23169.02656535  .00000967  00000-0  88803-4 0  9998,2 49178  69.9997 284.8637 0003113 269.8025  90.2777 14.98332635 97998,6950.185,96.107,574.213,569.886,0.0
49178.0,STARLINK-3086,PAYLOAD,2023-06-18 07:02:47,14.98337287,0.0003129,70.0002,284.1908,271.3458,88.7343,3.4433e-05,3.18e-06,0.0,0 STARLINK-3086,1 49178U 21082BA  23169.29360291  .00000318  00000-0  34433-4 0  9998,2 49178  70.0002 284.1908 0003129 271.3458  88.7343 14.98337287 98032,6950.17,96.107,574.21,569.861,0.0
49178.0,STARLINK-3086,PAYLOAD,2023-06-18 11:51:11,14.98341356,0.0003121,69.9999,283.6857,270.9255,89.1547,-4.575e-05,-6.39e-06,0.0,0 STARLINK-3086,1 49178U 21082BA  23169.49388133 -.00000639  00000-0 -45750-4 0  9997,2 49178  69.9999 283.6857 0003121 270.9255  89.1547 14.98341356 98069,6950.158,96.106,574.192,569.854,0.0
49178.0,STARLINK-3086,PAYLOAD,2023-06-19 00:40:15,14.98343951,0.0003109,70.0,282.3393,271.5108,88.5695,-4.9381e-05,-6.82e-06,0.0,0 STARLINK-3086,1 49178U 21082BA  23170.02795539 -.00000682  00000-0 -49381-4 0  9992,2 49178  70.0000 282.3393 0003109 271.5108  88.5695 14.98343951 98145,6950.15,96.106,574.176,569.854,0.0
49178.0,STARLINK-3086,PAYLOAD,2023-06-19 13:29:19,14.98335572,0.0003105,70.0001,280.9928,269.4381,90.6422,7.225e-05,7.69e-06,0.0,0 STARLINK-3086,1 49178U 21082BA  23170.56203562  .00000769  00000-0  72250-4 0  9996,2 49178  70.0001 280.9928 0003105 269.4381  90.6422 14.98335572 98220,6950.176,96.107,574.199,569.883,0.0
49178.0,STARLINK-3086,PAYLOAD,2023-06-19 16:41:35,14.98337067,0.0003089,70.0001,280.6562,269.4872,90.5933,8.7167e-05,9.47e-06,0.0,0 STARLINK-3086,1 49178U 21082BA  23170.69555391  .00000947  00000-0  87167-4 0  9991,2 49178  70.0001 280.6562 0003089 269.4872  90.5933 14.98337067 98246,6950.171,96.107,574.183,569.889,0.0
49178.0,STARLINK-3086,PAYLOAD,2023-06-20 16:43:37,14.98328005,0.0003095,70.0,278.1314,269.8979,90.1825,-6.6983e-05,-8.92e-06,0.0,0 STARLINK-3086,1 49178U 21082BA  23171.69696137 -.00000892  00000-0 -66983-4 0  9990,2 49178  70.0000 278.1314 0003095 269.8979  90.1825 14.98328005 98395,6950.199,96.107,574.215,569.913,0.0
49178.0,STARLINK-3086,PAYLOAD,2023-06-21 11:57:13,14.98335577,0.0003194,69.9999,276.1112,269.8393,90.2401,6.1776e-05,6.44e-06,0.0,0 STARLINK-3086,1 49178U 21082BA  23172.49807173  .00000644  00000-0  61776-4 0  9991,2 49178  69.9999 276.1112 0003194 269.8393  90.2401 14.98335577 98510,6950.176,96.107,574.261,569.821,0.0
49178.0,STARLINK-3086,PAYLOAD,2023-06-21 13:33:21,14.98337696,0.0003196,69.9999,275.9423,268.6074,91.4719,5.4264e-05,5.55e-06,0.0,0 STARLINK-3086,1 49178U 21082BA  23172.56483020  .00000555  00000-0  54264-4 0  9995,2 49178  69.9999 275.9423 0003196 268.6074  91.4719 14.98337696 98527,6950.169,96.107,574.255,569.813,0.0
49178.0,STARLINK-3086,PAYLOAD,2023-06-21 16:45:37,14.98338206,0.0003202,70.0,275.6057,268.644,91.4352,5.8403e-05,6.04e-06,0.0,0 STARLINK-3086,1 49178U 21082BA  23172.69834922  .00000604  00000-0  58403-4 0  9994,2 49178  70.0000 275.6057 0003202 268.6440  91.4352 14.98338206 98541,6950.168,96.106,574.258,569.807,0.0
49178.0,STARLINK-3086,PAYLOAD,2023-06-22 10:23:06,14.98326517,0.0003226,70.0001,273.7546,268.1429,91.9361,2.7581e-05,2.36e-06,0.0,0 STARLINK-3086,1 49178U 21082BA  23173.43271740  .00000236  00000-0  27581-4 0  9994,2 49178  70.0001 273.7546 0003226 268.1429  91.9361 14.98326517 98651,6950.204,96.107,574.311,569.827,0.0
49178.0,STARLINK-3086,PAYLOAD,2023-06-23 12:01:15,14.98336069,0.0003144,70.0003,271.0614,268.1027,91.9772,2.3073e-05,1.82e-06,0.0,0 STARLINK-3086,1 49178U 21082BA  23174.50087079  .00000182  00000-0  23073-4 0  9995,2 49178  70.0003 271.0614 0003144 268.1027  91.9772 14.98336069 98810,6950.174,96.107,574.224,569.854,0.0
49178.0,STARLINK-3086,PAYLOAD,2023-06-24 08:51:00,14.98329092,0.0003092,70.0004,268.8733,267.2892,92.7913,2.9671e-05,2.61e-06,0.0,0 STARLINK-3086,1 49178U 21082BA  23175.36875333  .00000261  00000-0  29671-4 0  9996,2 49178  70.0004 268.8733 0003092 267.2892  92.7913 14.98329092 98947,6950.196,96.107,574.21,569.912,0.0
49178.0,STARLINK-3086,PAYLOAD,2023-06-25 12:05:17,14.98331678,0.0003118,69.9999,266.0118,262.9383,97.1422,2.6597e-05,2.24e-06,0.0,0 STARLINK-3086,1 49178U 21082BA  23176.50367044  .00000224  00000-0  26597-4 0  9991,2 49178  69.9999 266.0118 0003118 262.9383  97.1422 14.98331678 99117,6950.188,96.107,574.22,569.886,0.0
49178.0,STARLINK-3086,PAYLOAD,2023-06-26 08:55:02,14.98324352,0.0003163,69.9997,263.8238,267.6643,92.4154,-7.6102e-06,-1.84e-06,0.0,0 STARLINK-3086,1 49178U 21082BA  23177.37155682 -.00000184  00000-0 -76102-5 0  9995,2 49178  69.9997 263.8238 0003163 267.6643  92.4154 14.98324352 99249,6950.21,96.107,574.274,569.877,0.0
49178.0,STARLINK-3086,PAYLOAD,2023-06-27 12:09:18,14.98351923,0.0003546,69.9992,260.962,270.339,89.7362,-0.00032154,-3.93e-05,0.0,0 STARLINK-3086,1 49178U 21082BA  23178.50646854 -.00003930  00000-0 -32154-3 0  9996,2 49178  69.9992 260.9620 0003546 270.3390  89.7362 14.98351923 99415,6950.125,96.106,574.455,569.526,0.0
49178.0,STARLINK-3086,PAYLOAD,2023-06-27 13:45:27,14.98331915,0.0003425,69.9992,260.7937,270.3943,89.6824,3.9916e-05,3.83e-06,0.0,0 STARLINK-3086,1 49178U 21082BA  23178.57323257  .00000383  00000-0  39916-4 0  9993,2 49178  69.9992 260.7937 0003425 270.3943  89.6824 14.98331915 99426,6950.187,96.107,574.432,569.672,0.0
49178.0,STARLINK-3086,PAYLOAD,2023-06-28 15:23:36,14.98333388,0.0003421,69.9993,258.1004,270.2519,89.8248,0.00013165,1.478e-05,0.0,0 STARLINK-3086,1 49178U 21082BA  23179.64138953  .00001478  00000-0  13165-3 0  9992,2 49178  69.9993 258.1004 0003421 270.2519  89.8248 14.98333388 99582,6950.182,96.107,574.425,569.67,0.0
49178.0,STARLINK-3086,PAYLOAD,2023-06-29 10:37:13,14.98330801,0.0003356,69.9995,256.0805,270.2474,89.8301,3.0602e-05,2.72e-06,0.0,0 STARLINK-3086,1 49178U 21082BA  23180.44251306  .00000272  00000-0  30602-4 0  9997,2 49178  69.9995 256.0805 0003356 270.2474  89.8301 14.98330801 99708,6950.19,96.107,574.388,569.723,0.0
49178.0,STARLINK-3086,PAYLOAD,2023-07-01 09:05:07,14.98325392,0.0003385,69.9992,251.1995,267.1924,92.8848,-3.7874e-05,-5.45e-06,0.0,0 STARLINK-3086,1 49178U 21082BA  23182.37855339 -.00000545  00000-0 -37874-4 0  9990,2 49178  69.9992 251.1995 0003385 267.1924  92.8848 14.98325392 99998,6950.207,96.107,574.425,569.719,0.0
